STARLINK-1559           
1 46077U 20055BC  26068.23360559  .00042685  00000+0  14779-2 0  9995
2 46077  53.0254  76.0659 0004229  33.9710 326.1559 15.29461733309518
STARLINK-32661          
1 62899U 25024W   26068.40879765  .00024191  00000+0  88570-3 0  9992
2 62899  42.9940 326.8932 0000085 165.8830 194.2024 15.27581087 62229
